{
  "norad_id": 58442,
  "name": "STARLINK-30959",
  "history": [
    {
      "epoch": "2026-03-28T21:03:41.962464",
      "apogee_km": 486.0283276739501,
      "perigee_km": 484.5437692685664,
      "latitude_deg": -26.227910739606042,
      "longitude_deg": 108.44662496005185,
      "semi_major_axis_km": 6863.423048471258,
      "eccentricity": 0.00010815,
      "inclination_deg": 43.0031,
      "raan_deg": 292.8468,
      "arg_perigee_deg": 220.6316,
      "mean_anomaly_deg": 139.4455,
      "mean_motion_rev_day": 15.26833249
    }
  ]
}